STARLINK-1549
1 46074U 20055AZ  26092.91668981  .02018695  00000+0  10666+0 0  9998
2 46074  53.0532 347.7339 0001371  94.2923 180.1675 15.11816866  5734
